CCSDS_OMM_VERS = 2.0
CREATION_DATE  = 
ORIGINATOR     = 

OBJECT_NAME    = STARLINK-36811
OBJECT_ID      = 2026-032M
CENTER_NAME    = EARTH
REF_FRAME      = TEME
TIME_SYSTEM    = UTC
MEAN_ELEMENT_THEORY = SGP/SGP4

EPOCH          = 2026-03-14T11:45:24.109632
MEAN_MOTION    = 15.75223248
ECCENTRICITY   = .00016192
INCLINATION    = 97.2840
RA_OF_ASC_NODE = 260.2841
ARG_OF_PERICENTER = 39.5522
MEAN_ANOMALY   = 320.5861

EPHEMERIS_TYPE = 0
CLASSIFICATION_TYPE = U
NORAD_CAT_ID   = 67808
ELEMENT_SET_NO = 999
REV_AT_EPOCH   = 554
BSTAR          = .10859562E-2
MEAN_MOTION_DOT = .165258E-2
MEAN_MOTION_DDOT = 0

CCSDS_OMM_VERS = 2.0
CREATION_DATE  = 
ORIGINATOR     = 

OBJECT_NAME    = STARLINK-36795
OBJECT_ID      = 2026-032N
CENTER_NAME    = EARTH
REF_FRAME      = TEME
TIME_SYSTEM    = UTC
MEAN_ELEMENT_THEORY = SGP/SGP4

EPOCH          = 2026-03-14T12:09:47.583936
MEAN_MOTION    = 15.75241557
ECCENTRICITY   = .00017048
INCLINATION    = 97.2840
RA_OF_ASC_NODE = 260.2596
ARG_OF_PERICENTER = 32.2236
MEAN_ANOMALY   = 327.9133

EPHEMERIS_TYPE = 0
CLASSIFICATION_TYPE = U
NORAD_CAT_ID   = 67809
ELEMENT_SET_NO = 999
REV_AT_EPOCH   = 554
BSTAR          = .15355083E-2
MEAN_MOTION_DOT = .235866E-2
MEAN_MOTION_DDOT = 0

CCSDS_OMM_VERS = 2.0
CREATION_DATE  = 
ORIGINATOR     = 

OBJECT_NAME    = STARLINK-36807
OBJECT_ID      = 2026-032P
CENTER_NAME    = EARTH
REF_FRAME      = TEME
TIME_SYSTEM    = UTC
MEAN_ELEMENT_THEORY = SGP/SGP4

EPOCH          = 2026-03-14T11:46:55.502688
MEAN_MOTION    = 15.75211520
ECCENTRICITY   = .00013267
INCLINATION    = 97.2843
RA_OF_ASC_NODE = 260.2811
ARG_OF_PERICENTER = 86.9700
MEAN_ANOMALY   = 273.1717

EPHEMERIS_TYPE = 0
CLASSIFICATION_TYPE = U
NORAD_CAT_ID   = 67810
ELEMENT_SET_NO = 999
REV_AT_EPOCH   = 554
BSTAR          = .92745931E-3
MEAN_MOTION_DOT = .140638E-2
MEAN_MOTION_DDOT = 0

CCSDS_OMM_VERS = 2.0
CREATION_DATE  = 
ORIGINATOR     = 

OBJECT_NAME    = STARLINK-36733
OBJECT_ID      = 2026-032Q
CENTER_NAME    = EARTH
REF_FRAME      = TEME
TIME_SYSTEM    = UTC
MEAN_ELEMENT_THEORY = SGP/SGP4

EPOCH          = 2026-03-14T11:33:12.165120
MEAN_MOTION    = 15.75220086
ECCENTRICITY   = .00012335
INCLINATION    = 97.2833
RA_OF_ASC_NODE = 260.2935
ARG_OF_PERICENTER = 76.1685
MEAN_ANOMALY   = 283.9718

EPHEMERIS_TYPE = 0
CLASSIFICATION_TYPE = U
NORAD_CAT_ID   = 67811
ELEMENT_SET_NO = 999
REV_AT_EPOCH   = 554
BSTAR          = .11015476E-2
MEAN_MOTION_DOT = .167655E-2
MEAN_MOTION_DDOT = 0

CCSDS_OMM_VERS = 2.0
CREATION_DATE  = 
ORIGINATOR     = 

OBJECT_NAME    = STARLINK-36377
OBJECT_ID      = 2026-032R
CENTER_NAME    = EARTH
REF_FRAME      = TEME
TIME_SYSTEM    = UTC
MEAN_ELEMENT_THEORY = SGP/SGP4

EPOCH          = 2026-03-14T11:29:38.909184
MEAN_MOTION    = 15.75214456
ECCENTRICITY   = .00014597
INCLINATION    = 97.2837
RA_OF_ASC_NODE = 260.2974
ARG_OF_PERICENTER = 25.3819
MEAN_ANOMALY   = 334.7517

EPHEMERIS_TYPE = 0
CLASSIFICATION_TYPE = U
NORAD_CAT_ID   = 67812
ELEMENT_SET_NO = 999
REV_AT_EPOCH   = 554
BSTAR          = .99746152E-3
MEAN_MOTION_DOT = .151476E-2
MEAN_MOTION_DDOT = 0

CCSDS_OMM_VERS = 2.0
CREATION_DATE  = 
ORIGINATOR     = 

OBJECT_NAME    = STARLINK-36732
OBJECT_ID      = 2026-032S
CENTER_NAME    = EARTH
REF_FRAME      = TEME
TIME_SYSTEM    = UTC
MEAN_ELEMENT_THEORY = SGP/SGP4

EPOCH          = 2026-03-14T11:36:45.715680
MEAN_MOTION    = 15.75236411
ECCENTRICITY   = .0000243
INCLINATION    = 97.2837
RA_OF_ASC_NODE = 260.2895
ARG_OF_PERICENTER = 10.8364
MEAN_ANOMALY   = 349.2907

EPHEMERIS_TYPE = 0
CLASSIFICATION_TYPE = U
NORAD_CAT_ID   = 67813
ELEMENT_SET_NO = 999
REV_AT_EPOCH   = 554
BSTAR          = .14919116E-2
MEAN_MOTION_DOT = .228934E-2
MEAN_MOTION_DDOT = 0

CCSDS_OMM_VERS = 2.0
CREATION_DATE  = 
ORIGINATOR     = 

OBJECT_NAME    = STARLINK-36767
OBJECT_ID      = 2026-032T
CENTER_NAME    = EARTH
REF_FRAME      = TEME
TIME_SYSTEM    = UTC
MEAN_ELEMENT_THEORY = SGP/SGP4

EPOCH          = 2026-03-14T12:05:13.014240
MEAN_MOTION    = 15.75225365
ECCENTRICITY   = .0001469
INCLINATION    = 97.2837
RA_OF_ASC_NODE = 260.2620
ARG_OF_PERICENTER = 55.3867
MEAN_ANOMALY   = 304.7536

EPHEMERIS_TYPE = 0
CLASSIFICATION_TYPE = U
NORAD_CAT_ID   = 67814
ELEMENT_SET_NO = 999
REV_AT_EPOCH   = 554
BSTAR          = .10339275E-2
MEAN_MOTION_DOT = .157199E-2
MEAN_MOTION_DDOT = 0

CCSDS_OMM_VERS = 2.0
CREATION_DATE  = 
ORIGINATOR     = 

OBJECT_NAME    = STARLINK-36797
OBJECT_ID      = 2026-032U
CENTER_NAME    = EARTH
REF_FRAME      = TEME
TIME_SYSTEM    = UTC
MEAN_ELEMENT_THEORY = SGP/SGP4

EPOCH          = 2026-03-14T11:52:30.781344
MEAN_MOTION    = 15.75252331
ECCENTRICITY   = .00016299
INCLINATION    = 97.2840
RA_OF_ASC_NODE = 260.2756
ARG_OF_PERICENTER = 74.4129
MEAN_ANOMALY   = 285.7316

EPHEMERIS_TYPE = 0
CLASSIFICATION_TYPE = U
NORAD_CAT_ID   = 67815
ELEMENT_SET_NO = 999
REV_AT_EPOCH   = 554
BSTAR          = .11141273E-2
MEAN_MOTION_DOT = .169854E-2
MEAN_MOTION_DDOT = 0

CCSDS_OMM_VERS = 2.0
CREATION_DATE  = 
ORIGINATOR     = 

OBJECT_NAME    = STARLINK-36343
OBJECT_ID      = 2026-032V
CENTER_NAME    = EARTH
REF_FRAME      = TEME
TIME_SYSTEM    = UTC
MEAN_ELEMENT_THEORY = SGP/SGP4

EPOCH          = 2026-03-14T11:24:03.666816
MEAN_MOTION    = 15.75305412
ECCENTRICITY   = .0001823
INCLINATION    = 97.2835
RA_OF_ASC_NODE = 260.3011
ARG_OF_PERICENTER = 103.6516
MEAN_ANOMALY   = 256.4952

EPHEMERIS_TYPE = 0
CLASSIFICATION_TYPE = U
NORAD_CAT_ID   = 67816
ELEMENT_SET_NO = 999
REV_AT_EPOCH   = 554
BSTAR          = .20754805E-2
MEAN_MOTION_DOT = .323052E-2
MEAN_MOTION_DDOT = 0

CCSDS_OMM_VERS = 2.0
CREATION_DATE  = 
ORIGINATOR     = 

OBJECT_NAME    = STARLINK-36756
OBJECT_ID      = 2026-032W
CENTER_NAME    = EARTH
REF_FRAME      = TEME
TIME_SYSTEM    = UTC
MEAN_ELEMENT_THEORY = SGP/SGP4

EPOCH          = 2026-03-14T11:39:48.804192
MEAN_MOTION    = 15.75214043
ECCENTRICITY   = .00017325
INCLINATION    = 97.2835
RA_OF_ASC_NODE = 260.2862
ARG_OF_PERICENTER = 90.4406
MEAN_ANOMALY   = 269.7058

EPHEMERIS_TYPE = 0
CLASSIFICATION_TYPE = U
NORAD_CAT_ID   = 67817
ELEMENT_SET_NO = 999
REV_AT_EPOCH   = 553
BSTAR          = .99387623E-3
MEAN_MOTION_DOT = .15092E-2
MEAN_MOTION_DDOT = 0

CCSDS_OMM_VERS = 2.0
CREATION_DATE  = 
ORIGINATOR     = 

OBJECT_NAME    = STARLINK-36346
OBJECT_ID      = 2026-032X
CENTER_NAME    = EARTH
REF_FRAME      = TEME
TIME_SYSTEM    = UTC
MEAN_ELEMENT_THEORY = SGP/SGP4

EPOCH          = 2026-03-14T11:17:57.679008
MEAN_MOTION    = 15.75386678
ECCENTRICITY   = .00018313
INCLINATION    = 97.2836
RA_OF_ASC_NODE = 260.3077
ARG_OF_PERICENTER = 121.4599
MEAN_ANOMALY   = 238.6846

EPHEMERIS_TYPE = 0
CLASSIFICATION_TYPE = U
NORAD_CAT_ID   = 67818
ELEMENT_SET_NO = 999
REV_AT_EPOCH   = 554
BSTAR          = .31184042E-2
MEAN_MOTION_DOT = .497346E-2
MEAN_MOTION_DDOT = 0

CCSDS_OMM_VERS = 2.0
CREATION_DATE  = 
ORIGINATOR     = 

OBJECT_NAME    = STARLINK-36788
OBJECT_ID      = 2026-032Y
CENTER_NAME    = EARTH
REF_FRAME      = TEME
TIME_SYSTEM    = UTC
MEAN_ELEMENT_THEORY = SGP/SGP4

EPOCH          = 2026-03-14T11:55:33.832704
MEAN_MOTION    = 15.75245403
ECCENTRICITY   = .00016736
INCLINATION    = 97.2839
RA_OF_ASC_NODE = 260.2715
ARG_OF_PERICENTER = 65.2164
MEAN_ANOMALY   = 294.9275

EPHEMERIS_TYPE = 0
CLASSIFICATION_TYPE = U
NORAD_CAT_ID   = 67819
ELEMENT_SET_NO = 999
REV_AT_EPOCH   = 554
BSTAR          = .10351683E-2
MEAN_MOTION_DOT = .157531E-2
MEAN_MOTION_DDOT = 0

